0 IRIDIUM 33 DEB
1 34643U 97051JU  13281.83949895  .00003660  00000-0  12240-2 0   494
2 34643 086.3935 133.1865 0038212 000.9064 127.1236 14.36782512239238
0 IRIDIUM 33 DEB
1 34643U 97051JU  13283.09306251  .00004907  00000-0  16425-2 0   503
2 34643 086.3934 132.6598 0038162 356.8890 131.0225 14.36798096239414
0 IRIDIUM 33 DEB
1 34643U 97051JU  13286.08718189  .00004371  00000-0  14620-2 0   524
2 34643 086.3932 131.4022 0037788 347.2177 138.0060 14.36820928239847
0 IRIDIUM 33 DEB
1 34643U 97051JU  13287.53111876  .00004862  00000-0  16269-2 0   532
2 34643 086.3927 130.7956 0037615 342.4727 046.8931 14.36831277240053
0 IRIDIUM 33 DEB
1 34643U 97051JU  13288.80368954  .00006167  00000-0  20642-2 0   545
2 34643 086.3922 130.2609 0037449 338.2783 149.4533 14.36848125240236
0 IRIDIUM 33 DEB
1 34643U 97051JU  13289.98782096  .00006007  00000-0  20102-2 0   557
2 34643 086.3917 129.7634 0037302 334.4171 154.5612 14.36858230240400
0 IRIDIUM 33 DEB
1 34643U 97051JU  13291.29728685  .00005613  00000-0  18778-2 0   567
2 34643 086.3913 129.2130 0037153 330.0766 088.1102 14.36871380240595
0 IRIDIUM 33 DEB
1 34643U 97051JU  13292.34131006  .00005475  00000-0  18313-2 0   571
2 34643 086.3914 128.7744 0037042 326.5902 088.6567 14.36881058240740
0 IRIDIUM 33 DEB
1 34643U 97051JU  13293.74805252  .00006009  00000-0  20099-2 0   586
2 34643 086.3916 128.1833 0036912 321.8773 165.5595 14.36893762240947
0 IRIDIUM 33 DEB
1 34643U 97051JU  13294.79346825  .00007133  00000-0  23863-2 0   590
2 34643 086.3918 127.7439 0036823 318.4189 173.3632 14.36903732241095
